{
  "type": "FeatureCollection",
  "features": [
    {
      "type": "Feature",
      "properties": {
        "norad_id": 34459,
        "name": "COSMOS 2251 DEB",
        "group": "cosmos-2251-debris",
        "lat": 44.99828622037368,
        "lon": -93.03430245011346,
        "alt_km": 879.6105587328593,
        "timestamp": "2025-12-14T20:40:32.167335+00:00",
        "meta_object_name": "COSMOS 2251 DEB",
        "meta_object_id": "1993-036TC",
        "meta_epoch": "2025-12-14T03:18:39.425184",
        "meta_mean_motion": 14.00502841,
        "meta_eccentricity": 0.01920747,
        "meta_inclination": 74.0791,
        "meta_ra_of_asc_node": 251.6322,
        "meta_arg_of_pericenter": 321.0996,
        "meta_mean_anomaly": 37.6443,
        "meta_ephemeris_type": 0,
        "meta_classification_type": "U",
        "meta_norad_cat_id": 34459,
        "meta_element_set_no": 999,
        "meta_rev_at_epoch": 85731,
        "meta_bstar": 0.00065331044,
        "meta_mean_motion_dot": 1.113e-05,
        "meta_mean_motion_ddot": 0,
        "tle_line1": "1 34459U 93036TC  25348.13795631  .00001113  00000+0  65331-3 0  9999",
        "tle_line2": "2 34459  74.0791 251.6322 0192074 321.0996  37.6443 14.00502841857315"
      },
      "geometry": {
        "type": "Point",
        "coordinates": [
          -93.03430245011346,
          44.99828622037368
        ]
      }
    },
    {
      "type": "Feature",
      "properties": {
        "norad_id": 34464,
        "name": "COSMOS 2251 DEB",
        "group": "cosmos-2251-debris",
        "lat": 66.1108083123863,
        "lon": 114.17731540001154,
        "alt_km": 487.39229930606416,
        "timestamp": "2025-12-14T20:40:32.167345+00:00",
        "meta_object_name": "COSMOS 2251 DEB",
        "meta_object_id": "1993-036TH",
        "meta_epoch": "2025-12-14T07:47:05.470368",
        "meta_mean_motion": 15.27359204,
        "meta_eccentricity": 0.00156741,
        "meta_inclination": 73.9896,
        "meta_ra_of_asc_node": 74.9047,
        "meta_arg_of_pericenter": 255.0671,
        "meta_mean_anomaly": 104.8795,
        "meta_ephemeris_type": 0,
        "meta_classification_type": "U",
        "meta_norad_cat_id": 34464,
        "meta_element_set_no": 999,
        "meta_rev_at_epoch": 89864,
        "meta_bstar": 0.0031073219,
        "meta_mean_motion_dot": 0.00084479,
        "meta_mean_motion_ddot": 0,
        "tle_line1": "1 34464U 93036TH  25348.32436887  .00084479  00000+0  31073-2 0  9992",
        "tle_line2": "2 34464  73.9896  74.9047 0015674 255.0671 104.8795 15.27359204898642"
      },
      "geometry": {
        "type": "Point",
        "coordinates": [
          114.17731540001154,
          66.1108083123863
        ]
      }
    },
    {
      "type": "Feature",
      "properties": {
        "norad_id": 34468,
        "name": "COSMOS 2251 DEB",
        "group": "cosmos-2251-debris",
        "lat": 46.49115156578759,
        "lon": 130.80793178116173,
        "alt_km": 776.5252542427561,
        "timestamp": "2025-12-14T20:40:32.167355+00:00",
        "meta_object_name": "COSMOS 2251 DEB",
        "meta_object_id": "1993-036TM",
        "meta_epoch": "2025-12-14T02:12:14.559552",
        "meta_mean_motion": 14.47630082,
        "meta_eccentricity": 0.00763651,
        "meta_inclination": 74.013,
        "meta_ra_of_asc_node": 114.6708,
        "meta_arg_of_pericenter": 259.341,
        "meta_mean_anomaly": 99.9143,
        "meta_ephemeris_type": 0,
        "meta_classification_type": "U",
        "meta_norad_cat_id": 34468,
        "meta_element_set_no": 999,
        "meta_rev_at_epoch": 88481,
        "meta_bstar": 0.0004628495,
        "meta_mean_motion_dot": 1.74e-05,
        "meta_mean_motion_ddot": 0,
        "tle_line1": "1 34468U 93036TM  25348.09183518  .00001740  00000+0  46285-3 0  9992",
        "tle_line2": "2 34468  74.0130 114.6708 0076365 259.3410  99.9143 14.47630082884819"
      },
      "geometry": {
        "type": "Point",
        "coordinates": [
          130.80793178116173,
          46.49115156578759
        ]
      }
    },
    {
      "type": "Feature",
      "properties": {
        "norad_id": 34472,
        "name": "COSMOS 2251 DEB",
        "group": "cosmos-2251-debris",
        "lat": -20.409253284889516,
        "lon": -79.24910832911432,
        "alt_km": 780.8213504767109,
        "timestamp": "2025-12-14T20:40:32.167365+00:00",
        "meta_object_name": "COSMOS 2251 DEB",
        "meta_object_id": "1993-036TR",
        "meta_epoch": "2025-12-10T17:33:33.413472",
        "meta_mean_motion": 13.70324681,
        "meta_eccentricity": 0.03280455,
        "meta_inclination": 74.083,
        "meta_ra_of_asc_node": 101.446,
        "meta_arg_of_pericenter": 232.9036,
        "meta_mean_anomaly": 124.1688,
        "meta_ephemeris_type": 0,
        "meta_classification_type": "U",
        "meta_norad_cat_id": 34472,
        "meta_element_set_no": 999,
        "meta_rev_at_epoch": 83699,
        "meta_bstar": 0.0010864797,
        "meta_mean_motion_dot": 1.379e-05,
        "meta_mean_motion_ddot": 0,
        "tle_line1": "1 34472U 93036TR  25344.73163673  .00001379  00000+0  10865-2 0  9996",
        "tle_line2": "2 34472  74.0830 101.4460 0328045 232.9036 124.1688 13.70324681836997"
      },
      "geometry": {
        "type": "Point",
        "coordinates": [
          -79.24910832911432,
          -20.409253284889516
        ]
      }
    },
    {
      "type": "Feature",
      "properties": {
        "norad_id": 34474,
        "name": "COSMOS 2251 DEB",
        "group": "cosmos-2251-debris",
        "lat": -65.2470593861694,
        "lon": -179.27241274089872,
        "alt_km": 995.4885510417689,
        "timestamp": "2025-12-14T20:40:32.167375+00:00",
        "meta_object_name": "COSMOS 2251 DEB",
        "meta_object_id": "1993-036TT",
        "meta_epoch": "2025-12-13T23:07:33.826944",
        "meta_mean_motion": 14.06424076,
        "meta_eccentricity": 0.01985224,
        "meta_inclination": 74.0776,
        "meta_ra_of_asc_node": 324.0421,
        "meta_arg_of_pericenter": 37.585,
        "meta_mean_anomaly": 350.101,
        "meta_ephemeris_type": 0,
        "meta_classification_type": "U",
        "meta_norad_cat_id": 34474,
        "meta_element_set_no": 999,
        "meta_rev_at_epoch": 85526,
        "meta_bstar": 0.0022551906,
        "meta_mean_motion_dot": 4.432e-05,
        "meta_mean_motion_ddot": 0,
        "tle_line1": "1 34474U 93036TT  25347.96358596  .00004432  00000+0  22552-2 0  9995",
        "tle_line2": "2 34474  74.0776 324.0421 0198522  37.5850 350.1010 14.06424076855266"
      },
      "geometry": {
        "type": "Point",
        "coordinates": [
          -179.27241274089872,
          -65.2470593861694
        ]
      }
    },
    {
      "type": "Feature",
      "properties": {
        "norad_id": 34476,
        "name": "COSMOS 2251 DEB",
        "group": "cosmos-2251-debris",
        "lat": 39.308940841221784,
        "lon": 92.5096903425712,
        "alt_km": 999.9967449053584,
        "timestamp": "2025-12-14T20:40:32.167385+00:00",
        "meta_object_name": "COSMOS 2251 DEB",
        "meta_object_id": "1993-036TV",
        "meta_epoch": "2025-12-13T13:12:32.914944",
        "meta_mean_motion": 13.82038877,
        "meta_eccentricity": 0.03206751,
        "meta_inclination": 74.0054,
        "meta_ra_of_asc_node": 81.1369,
        "meta_arg_of_pericenter": 300.528,
        "meta_mean_anomaly": 56.4549,
        "meta_ephemeris_type": 0,
        "meta_classification_type": "U",
        "meta_norad_cat_id": 34476,
        "meta_element_set_no": 999,
        "meta_rev_at_epoch": 83649,
        "meta_bstar": 0.0039703915,
        "meta_mean_motion_dot": 6.299e-05,
        "meta_mean_motion_ddot": 0,
        "tle_line1": "1 34476U 93036TV  25347.55038096  .00006299  00000+0  39704-2 0  9992",
        "tle_line2": "2 34476  74.0054  81.1369 0320675 300.5280  56.4549 13.82038877836495"
      },
      "geometry": {
        "type": "Point",
        "coordinates": [
          92.5096903425712,
          39.308940841221784
        ]
      }
    },
    {
      "type": "Feature",
      "properties": {
        "norad_id": 34477,
        "name": "COSMOS 2251 DEB",
        "group": "cosmos-2251-debris",
        "lat": 35.887708965887185,
        "lon": -126.54058570300265,
        "alt_km": 718.5750210781034,
        "timestamp": "2025-12-14T20:40:32.167395+00:00",
        "meta_object_name": "COSMOS 2251 DEB",
        "meta_object_id": "1993-036TW",
        "meta_epoch": "2025-12-14T07:05:42.571104",
        "meta_mean_motion": 14.56879541,
        "meta_eccentricity": 0.00768915,
        "meta_inclination": 73.9793,
        "meta_ra_of_asc_node": 66.5362,
        "meta_arg_of_pericenter": 253.4154,
        "meta_mean_anomaly": 163.1913,
        "meta_ephemeris_type": 0,
        "meta_classification_type": "U",
        "meta_norad_cat_id": 34477,
        "meta_element_set_no": 999,
        "meta_rev_at_epoch": 88648,
        "meta_bstar": 0.00090995711,
        "meta_mean_motion_dot": 4.219e-05,
        "meta_mean_motion_ddot": 0,
        "tle_line1": "1 34477U 93036TW  25348.29563161  .00004219  00000+0  90996-3 0  9992",
        "tle_line2": "2 34477  73.9793  66.5362 0076891 253.4154 163.1913 14.56879541886486"
      },
      "geometry": {
        "type": "Point",
        "coordinates": [
          -126.54058570300265,
          35.887708965887185
        ]
      }
    }
  ]
}